[{"OBJECT_NAME":"STARLINK-30363","OBJECT_ID":"2023-131N","EPOCH":"2026-03-09T22:00:01.999584","MEAN_MOTION":15.26650799,"ECCENTRICITY":0.00014125,"INCLINATION":43.0005,"RA_OF_ASC_NODE":156.2845,"ARG_OF_PERICENTER":285.7606,"MEAN_ANOMALY":160.1146,"EPHEMERIS_TYPE":0,"CLASSIFICATION_TYPE":"U","NORAD_CAT_ID":57744,"ELEMENT_SET_NO":999,"REV_AT_EPOCH":578,"BSTAR":0.001785891,"MEAN_MOTION_DOT":0.00047826,"MEAN_MOTION_DDOT":0},{"OBJECT_NAME":"TLV R\/B","OBJECT_ID":"2023-188B","EPOCH":"2026-03-09T16:54:55.723104","MEAN_MOTION":15.27880264,"ECCENTRICITY":0.01149043,"INCLINATION":46.9277,"RA_OF_ASC_NODE":152.866,"ARG_OF_PERICENTER":233.4436,"MEAN_ANOMALY":125.5857,"EPHEMERIS_TYPE":0,"CLASSIFICATION_TYPE":"U","NORAD_CAT_ID":58501,"ELEMENT_SET_NO":999,"REV_AT_EPOCH":12559,"BSTAR":0.00038559521,"MEAN_MOTION_DOT":0.0001266,"MEAN_MOTION_DDOT":0}]
